{"type":"FeatureCollection","features":[{"type":"Feature","properties":{"name":"West Highland","label":[-105.03925,39.7618]},"geometry":{"type":"Polygon","coordinates":[[[-105.02524,39.76929],[-105.02529,39.76816],[-105.02529,39.76608],[-105.02523,39.76561],[-105.02528,39.76509],[-105.02523,39.75848],[-105.03461,39.75852],[-105.05324,39.75847],[-105.05324,39.76933],[-105.04401,39.76936],[-105.04167,39.76945],[-105.03934,39.76943],[-105.03464,39.76955],[-105.02524,39.76929]]]}},{"type":"Feature","properties":{"name":"Sloan Lake","label":[-105.03923,39.75121]},"geometry":{"type":"Polygon","coordinates":[[[-105.02523,39.75848],[-105.02523,39.75783],[-105.02528,39.75779],[-105.02527,39.75547],[-105.02522,39.75544],[-105.02522,39.75405],[-105.02528,39.75402],[-105.0253,39.75172],[-105.02522,39.75169],[-105.02523,39.75073],[-105.02527,39.75068],[-105.02527,39.74812],[-105.02523,39.74809],[-105.02521,39.74636],[-105.03577,39.74638],[-105.03577,39.74395],[-105.05321,39.74398],[-105.05324,39.75847],[-105.03461,39.75852],[-105.02523,39.75848]]]}},{"type":"Feature","properties":{"name":"Berkeley","label":[-105.03924,39.77725]},"geometry":{"type":"Polygon","coordinates":[[[-105.02519,39.78438],[-105.02525,39.78095],[-105.02519,39.78026],[-105.02525,39.77983],[-105.02527,39.77785],[-105.02522,39.77664],[-105.02529,39.77577],[-105.02529,39.77344],[-105.02523,39.77294],[-105.02529,39.77243],[-105.0253,39.77084],[-105.02524,39.77022],[-105.02524,39.76929],[-105.03464,39.76955],[-105.03934,39.76943],[-105.04167,39.76945],[-105.04401,39.76936],[-105.05324,39.76933],[-105.05324,39.78367],[-105.05261,39.78388],[-105.05071,39.78482],[-105.04984,39.78505],[-105.04886,39.78515],[-105.04771,39.78503],[-105.04682,39.78472],[-105.04525,39.78397],[-105.04475,39.7838],[-105.04403,39.78366],[-105.04331,39.78359],[-105.03627,39.78358],[-105.03455,39.78345],[-105.03313,39.7834],[-105.03244,39.78347],[-105.03006,39.78386],[-105.02731,39.78424],[-105.02519,39.78438]]]}},{"type":"Feature","properties":{"name":"Sunnyside","label":[-105.01172,39.77725]},"geometry":{"type":"Polygon","coordinates":[[[-104.99818,39.78256],[-104.9982,39.7693],[-105.02524,39.76929],[-105.02524,39.77022],[-105.0253,39.77084],[-105.02529,39.77243],[-105.02523,39.77294],[-105.02529,39.77344],[-105.02529,39.77577],[-105.02522,39.77664],[-105.02527,39.77785],[-105.02525,39.77983],[-105.02519,39.78026],[-105.02525,39.78095],[-105.02519,39.78438],[-105.02333,39.78427],[-105.02076,39.78383],[-105.01976,39.78372],[-105.01623,39.78372],[-105.01052,39.78359],[-105.00704,39.78326],[-105.00597,39.78327],[-105.00351,39.78363],[-105.00284,39.78367],[-105.00242,39.78365],[-105.00142,39.78347],[-104.99818,39.78256]]]}},{"type":"Feature","properties":{"name":"Highland","label":[-105.01229,39.76173]},"geometry":{"type":"Polygon","coordinates":[[[-104.9982,39.7693],[-104.99825,39.76212],[-104.99883,39.76198],[-104.99981,39.76148],[-105.00046,39.76123],[-105.00103,39.76107],[-105.00173,39.76101],[-105.00246,39.76072],[-105.00284,39.76064],[-105.00372,39.76005],[-105.00403,39.75981],[-105.00454,39.7591],[-105.00561,39.75807],[-105.00576,39.75783],[-105.00584,39.75751],[-105.00594,39.75735],[-105.00758,39.7554],[-105.00819,39.75479],[-105.00863,39.7547],[-105.00915,39.75431],[-105.00949,39.75393],[-105.01171,39.75501],[-105.01464,39.75608],[-105.01562,39.75635],[-105.01584,39.7563],[-105.01781,39.757],[-105.02054,39.75804],[-105.02137,39.75846],[-105.02523,39.75848],[-105.02528,39.76509],[-105.02523,39.76561],[-105.02529,39.76608],[-105.02529,39.76816],[-105.02524,39.76929],[-104.9982,39.7693]]]}},{"type":"Feature","properties":{"name":"University","label":[-104.96641,39.67482]},"geometry":{"type":"Polygon","coordinates":[[[-104.95945,39.68473],[-104.95938,39.68204],[-104.95938,39.6676],[-104.95944,39.66157],[-104.96308,39.66159],[-104.96309,39.66038],[-104.96883,39.66043],[-104.9688,39.66584],[-104.9735,39.66588],[-104.9734,39.68208],[-104.97342,39.68982],[-104.9653,39.68582],[-104.96424,39.68534],[-104.96317,39.685],[-104.96216,39.68481],[-104.96117,39.68473],[-104.95945,39.68473]]]}},{"type":"Feature","properties":{"name":"Cheesman Park","label":[-104.96639,39.73534]},"geometry":{"type":"Polygon","coordinates":[[[-104.96019,39.72911],[-104.97294,39.72908],[-104.97302,39.7384],[-104.97299,39.74004],[-104.95978,39.73999],[-104.9598,39.73228],[-104.95984,39.73108],[-104.96017,39.73049],[-104.96019,39.72911]]]}},{"type":"Feature","properties":{"name":"University Park","label":[-104.95005,39.67301]},"geometry":{"type":"Polygon","coordinates":[[[-104.94069,39.68296],[-104.94068,39.6801],[-104.94075,39.67842],[-104.94068,39.66756],[-104.94606,39.66756],[-104.94779,39.66702],[-104.94851,39.66694],[-104.94907,39.66696],[-104.94964,39.66708],[-104.95011,39.66722],[-104.95078,39.66754],[-104.95938,39.6676],[-104.95938,39.68204],[-104.95945,39.68473],[-104.95123,39.68474],[-104.94862,39.68464],[-104.94618,39.6843],[-104.9449,39.68403],[-104.94069,39.68296]]]}},{"type":"Feature","properties":{"name":"Platt Park","label":[-104.98048,39.6842]},"geometry":{"type":"Polygon","coordinates":[[[-104.97342,39.68982],[-104.97343,39.67851],[-104.98052,39.67857],[-104.98757,39.67852],[-104.98743,39.69663],[-104.98222,39.69666],[-104.97988,39.6947],[-104.97616,39.69139],[-104.97518,39.69072],[-104.97342,39.68982]]]}},{"type":"Feature","properties":{"name":"Cory-Merrill","label":[-104.94999,39.69113]},"geometry":{"type":"Polygon","coordinates":[[[-104.9407,39.69657],[-104.9407,39.69476],[-104.94063,39.69476],[-104.94063,39.69294],[-104.94063,39.68932],[-104.94071,39.68489],[-104.94069,39.68296],[-104.9449,39.68403],[-104.94618,39.6843],[-104.94862,39.68464],[-104.95123,39.68474],[-104.95945,39.68473],[-104.95944,39.68637],[-104.95935,39.68931],[-104.95932,39.69658],[-104.9407,39.69657]]]}},{"type":"Feature","properties":{"name":"Belcaro","label":[-104.95002,39.7074]},"geometry":{"type":"Polygon","coordinates":[[[-104.9407,39.71156],[-104.9407,39.69773],[-104.94003,39.69773],[-104.94003,39.69793],[-104.93856,39.69793],[-104.93856,39.69666],[-104.93955,39.69666],[-104.93955,39.69657],[-104.95932,39.69658],[-104.95936,39.70386],[-104.95931,39.71093],[-104.95926,39.71112],[-104.95931,39.71119],[-104.95931,39.71566],[-104.95741,39.71587],[-104.95661,39.71587],[-104.95544,39.71573],[-104.9537,39.71538],[-104.9525,39.71477],[-104.95168,39.71454],[-104.95153,39.71445],[-104.95072,39.71368],[-104.95012,39.71336],[-104.95002,39.71316],[-104.9499,39.71314],[-104.94932,39.71277],[-104.9492,39.71265],[-104.94904,39.71231],[-104.9489,39.71215],[-104.9486,39.71194],[-104.94846,39.71176],[-104.9482,39.71169],[-104.94789,39.7115],[-104.94256,39.7115],[-104.94135,39.71144],[-104.94091,39.71146],[-104.9407,39.71156]]]}},{"type":"Feature","properties":{"name":"Washington Park","label":[-104.96637,39.70111]},"geometry":{"type":"Polygon","coordinates":[[[-104.95931,39.71566],[-104.95931,39.71119],[-104.95926,39.71112],[-104.95931,39.71093],[-104.95936,39.70386],[-104.95934,39.69115],[-104.95945,39.68473],[-104.96174,39.68477],[-104.96262,39.68488],[-104.96317,39.685],[-104.9637,39.68515],[-104.96465,39.68551],[-104.97342,39.68982],[-104.97338,39.69835],[-104.97339,39.71473],[-104.97315,39.71473],[-104.97315,39.71801],[-104.97323,39.7182],[-104.97325,39.7184],[-104.97133,39.71796],[-104.97014,39.71753],[-104.96979,39.71729],[-104.96915,39.71666],[-104.96884,39.71646],[-104.9682,39.71574],[-104.96757,39.71521],[-104.96624,39.71438],[-104.96588,39.71423],[-104.96525,39.71413],[-104.96484,39.71422],[-104.96452,39.71434],[-104.96404,39.71461],[-104.96338,39.71481],[-104.96302,39.71506],[-104.96159,39.71543],[-104.95993,39.71563],[-104.95931,39.71566]]]}},{"type":"Feature","properties":{"name":"Washington Park West","label":[-104.98042,39.69969]},"geometry":{"type":"Polygon","coordinates":[[[-104.97342,39.68982],[-104.97518,39.69072],[-104.97616,39.69139],[-104.97988,39.6947],[-104.98222,39.69666],[-104.98743,39.69663],[-104.98747,39.70102],[-104.98756,39.702],[-104.98749,39.70264],[-104.98749,39.70388],[-104.98762,39.70754],[-104.98758,39.71116],[-104.97339,39.71111],[-104.97338,39.69835],[-104.97342,39.68982]]]}},{"type":"Feature","properties":{"name":"Cherry Creek","label":[-104.95003,39.71894]},"geometry":{"type":"Polygon","coordinates":[[[-104.9407,39.71156],[-104.94091,39.71146],[-104.94135,39.71144],[-104.94256,39.7115],[-104.94789,39.7115],[-104.9482,39.71169],[-104.94846,39.71176],[-104.9486,39.71194],[-104.9489,39.71215],[-104.94904,39.71231],[-104.9492,39.71265],[-104.94932,39.71277],[-104.9499,39.71314],[-104.95002,39.71316],[-104.95012,39.71336],[-104.95072,39.71368],[-104.95153,39.71445],[-104.95168,39.71454],[-104.9525,39.71477],[-104.9537,39.71538],[-104.95544,39.71573],[-104.95661,39.71587],[-104.95741,39.71587],[-104.95931,39.71566],[-104.9593,39.71845],[-104.95944,39.71942],[-104.95946,39.72496],[-104.96005,39.72537],[-104.96017,39.72561],[-104.94069,39.7256],[-104.9407,39.71156]]]}},{"type":"Feature","properties":{"name":"Congress Park","label":[-104.95023,39.73614]},"geometry":{"type":"Polygon","coordinates":[[[-104.94066,39.74013],[-104.94069,39.7256],[-104.96017,39.72561],[-104.96017,39.73049],[-104.95984,39.73108],[-104.9598,39.73228],[-104.95978,39.73999],[-104.95789,39.74021],[-104.94066,39.74013]]]}},{"type":"Feature","properties":{"name":"City Park","label":[-104.95021,39.74546]},"geometry":{"type":"Polygon","coordinates":[[[-104.94062,39.75104],[-104.94066,39.74013],[-104.95789,39.74021],[-104.95978,39.73999],[-104.95977,39.75072],[-104.95879,39.75074],[-104.9553,39.75113],[-104.9545,39.75117],[-104.94324,39.75115],[-104.94062,39.75104]]]}},{"type":"Feature","properties":{"name":"City Park West","label":[-104.96657,39.74378]},"geometry":{"type":"Polygon","coordinates":[[[-104.95978,39.73999],[-104.97341,39.74003],[-104.97334,39.74753],[-104.97336,39.75072],[-104.95977,39.75072],[-104.95978,39.73999]]]}}]}