{"type": "FeatureCollection", "crs": {"type": "name", "properties": {"name": "EPSG:4326"}}, "features": [{"type": "Feature", "geometry": {"type": "Polygon", "coordinates": [[[-105.025238785725, 39.7692890100273], [-105.02525047022, 39.7683515621883], [-105.025288118776, 39.768156912787], [-105.025287546241, 39.767437738901], [-105.025286861255, 39.7665121193107], [-105.025287591584, 39.7660788472278], [-105.025233456855, 39.765610376542], [-105.025282949815, 39.7650873672995], [-105.025281305642, 39.7646656790431], [-105.025278018549, 39.7637791681486], [-105.025244445215, 39.7631997621625], [-105.02524248668, 39.7624386351436], [-105.025241748557, 39.7620223852275], [-105.025223858506, 39.7608559298289], [-105.025235912961, 39.7602575146916], [-105.025233743069, 39.7584768746225], [-105.026094472058, 39.7584827455243], [-105.026841383298, 39.7584881524014], [-105.027558107781, 39.7584865704695], [-105.027597235009, 39.7584863843385], [-105.028173404126, 39.7584934994327], [-105.029930556585, 39.7584864607374], [-105.031089183671, 39.7584910821718], [-105.032282489416, 39.7584958300069], [-105.033434002583, 39.7585004000905], [-105.034613875334, 39.7585194836522], [-105.035198125343, 39.7585149288789], [-105.035798383131, 39.758510091617], [-105.03697132873, 39.7585009853527], [-105.03756266278, 39.7585009084101], [-105.03813710187, 39.7585007614508], [-105.038664410664, 39.7585007704975], [-105.038700870262, 39.7585005700694], [-105.039303763924, 39.7585005294821], [-105.039896889258, 39.7584983883853], [-105.040494463488, 39.7584959188966], [-105.041075140277, 39.758493722863], [-105.041654930087, 39.7584911781411], [-105.042248947537, 39.7584886854939], [-105.042826956405, 39.7584864706437], [-105.043422689504, 39.7584935872736], [-105.044005975698, 39.7585003096964], [-105.045068641224, 39.7584934402439], [-105.045456357125, 39.7584911636884], [-105.046325990357, 39.758495205261], [-105.046948521478, 39.7584835336842], [-105.048423764604, 39.7584799375685], [-105.048670902996, 39.7584901506208], [-105.049013286732, 39.7584849429863], [-105.049301425027, 39.7584802127035], [-105.049861692152, 39.758471375796], [-105.050894942627, 39.7584753227248], [-105.051477397533, 39.758473082963], [-105.05151030016, 39.7584728649631], [-105.052080305967, 39.7584705745819], [-105.052646730927, 39.7584720426293], [-105.053239833438, 39.7584736092113], [-105.053240324327, 39.7584736566435], [-105.053244385016, 39.7620853276708], [-105.053240954499, 39.7693224289524], [-105.053240880146, 39.7693340961897], [-105.052655679719, 39.7693342755511], [-105.052079373258, 39.7693344865969], [-105.051494999257, 39.7693446152986], [-105.050916850844, 39.7693547646987], [-105.050336064078, 39.7693600972869], [-105.049760616128, 39.7693651037056], [-105.048808992726, 39.7693662647731], [-105.048598251102, 39.7693606524403], [-105.047973010504, 39.7693637436795], [-105.047442046957, 39.7693661649982], [-105.04628578071, 39.7693812738556], [-105.045717477657, 39.7693814844037], [-105.045149172698, 39.769382035573], [-105.044012694121, 39.7693628829795], [-105.043432765315, 39.769372989135], [-105.04285639586, 39.7693827626831], [-105.042309244502, 39.7694125499962], [-105.042264759939, 39.769415122209], [-105.041674903835, 39.7694471423706], [-105.041086112307, 39.7694523982157], [-105.040499101254, 39.7694573148945], [-105.039918425453, 39.7694454383069], [-105.039337752881, 39.7694332162978], [-105.038740890903, 39.7694483796007], [-105.038155593843, 39.7694632427306], [-105.037579125062, 39.769487745728], [-105.036986643829, 39.7695128695714], [-105.03641116165, 39.7695226148605], [-105.035804549825, 39.7695325781671], [-105.035237976712, 39.7695399512031], [-105.034642940131, 39.7695478948925], [-105.034044551201, 39.769524938675], [-105.033644439901, 39.7695096280767], [-105.033072724765, 39.7694878023962], [-105.032300865402, 39.7694716985198], [-105.031537035755, 39.7694518468979], [-105.029969417238, 39.7694030472831], [-105.027610228272, 39.7693603182841], [-105.025953683269, 39.769310765133], [-105.025238785725, 39.7692890100273]]]}, "properties": {"NBHD_NAME": "West Highland"}}, {"type": "Feature", "geometry": {"type": "Polygon", "coordinates": [[[-105.025233743069, 39.7584768746225], [-105.025235014828, 39.7578961284289], [-105.025234675303, 39.7578323504922], [-105.025276998043, 39.7577904028326], [-105.025275334257, 39.7572522265945], [-105.025269804855, 39.7560201686132], [-105.02527377124, 39.755468449488], [-105.025223528027, 39.7554401713394], [-105.025222817909, 39.7548376658727], [-105.025215181054, 39.7540466153523], [-105.02528203891, 39.7540234869431], [-105.025277160849, 39.7536244547461], [-105.025296489681, 39.7524163104701], [-105.025299181578, 39.7517150673532], [-105.025224920036, 39.7516866816378], [-105.025228723538, 39.7512074435148], [-105.025229855949, 39.7507270644859], [-105.025270169561, 39.7506824347528], [-105.025267991465, 39.7499992394768], [-105.025272799885, 39.7487861580493], [-105.025273873048, 39.7481200597545], [-105.025232369079, 39.7480883052226], [-105.025229296664, 39.7475775373297], [-105.02522364942, 39.7470977790137], [-105.025221939483, 39.7469567352394], [-105.025213503221, 39.7463644142577], [-105.026820927498, 39.7463660824192], [-105.027431705473, 39.7463685366321], [-105.027778429966, 39.7463699284214], [-105.028380315134, 39.7463723426292], [-105.029041776743, 39.7463732756671], [-105.029284493346, 39.7463732171198], [-105.029940620617, 39.7463741239195], [-105.030698992689, 39.7463747485902], [-105.031511596793, 39.746375584229], [-105.032316167699, 39.7463811864748], [-105.033048725376, 39.7463864974537], [-105.033803511778, 39.7463915490084], [-105.034582300536, 39.7463970337733], [-105.034939781417, 39.7463857499474], [-105.035190510674, 39.7463839955127], [-105.035771103238, 39.7463794238283], [-105.035772043925, 39.7451629371297], [-105.03576583782, 39.7439515689118], [-105.036380165506, 39.7439512453717], [-105.036985600758, 39.7439512270128], [-105.037566096652, 39.7439583138081], [-105.038157307822, 39.7439582333243], [-105.038731674926, 39.7439508778815], [-105.039308637289, 39.7439545103826], [-105.042510871699, 39.7439670029006], [-105.042837140799, 39.743968270846], [-105.044023087978, 39.7439728720481], [-105.044587631375, 39.7439723130017], [-105.045158397421, 39.7439717750473], [-105.045754945355, 39.743971333846], [-105.046323044454, 39.74397078035], [-105.047516068459, 39.7439808640234], [-105.048084132438, 39.7439857922815], [-105.048686868124, 39.7439908505209], [-105.04926922901, 39.7439845035798], [-105.04980891285, 39.7439786768], [-105.050321890751, 39.7439782362916], [-105.050923774631, 39.7439774459529], [-105.05151678388, 39.7439742170453], [-105.052087567417, 39.7439709005562], [-105.052642294027, 39.7439760989686], [-105.053212133667, 39.7439813544038], [-105.053220172752, 39.747604083666], [-105.053240324327, 39.7584736566435], [-105.053239833438, 39.7584736092113], [-105.052646730927, 39.7584720426293], [-105.052080305967, 39.7584705745819], [-105.05151030016, 39.7584728649631], [-105.051477397533, 39.758473082963], [-105.050894942627, 39.7584753227248], [-105.049861692152, 39.758471375796], [-105.049301425027, 39.7584802127035], [-105.049013286732, 39.7584849429863], [-105.048670902996, 39.7584901506208], [-105.048423764604, 39.7584799375685], [-105.046948521478, 39.7584835336842], [-105.046325990357, 39.758495205261], [-105.045456357125, 39.7584911636884], [-105.045068641224, 39.7584934402439], [-105.044005975698, 39.7585003096964], [-105.043422689504, 39.7584935872736], [-105.042826956405, 39.7584864706437], [-105.042248947537, 39.7584886854939], [-105.041654930087, 39.7584911781411], [-105.041075140277, 39.758493722863], [-105.040494463488, 39.7584959188966], [-105.039896889258, 39.7584983883853], [-105.039303763924, 39.7585005294821], [-105.038700870262, 39.7585005700694], [-105.038664410664, 39.7585007704975], [-105.03813710187, 39.7585007614508], [-105.03756266278, 39.7585009084101], [-105.03697132873, 39.7585009853527], [-105.035798383131, 39.758510091617], [-105.035198125343, 39.7585149288789], [-105.034613875334, 39.7585194836522], [-105.033434002583, 39.7585004000905], [-105.032282489416, 39.7584958300069], [-105.031089183671, 39.7584910821718], [-105.029930556585, 39.7584864607374], [-105.028173404126, 39.7584934994327], [-105.027597235009, 39.7584863843385], [-105.027558107781, 39.7584865704695], [-105.026841383298, 39.7584881524014], [-105.026094472058, 39.7584827455243], [-105.025233743069, 39.7584768746225]]]}, "properties": {"NBHD_NAME": "Sloan Lake"}}, {"type": "Feature", "geometry": {"type": "Polygon", "coordinates": [[[-105.025192461689, 39.7843847395043], [-105.025191418603, 39.7843096956403], [-105.025185957712, 39.783916722608], [-105.025193178348, 39.7829886101484], [-105.0252409525, 39.782571829877], [-105.025242454299, 39.7821454512755], [-105.025245024914, 39.7809472953286], [-105.025188470007, 39.7802628476942], [-105.025250386528, 39.7798323522437], [-105.025257343875, 39.7790438848326], [-105.025268284432, 39.777853547353], [-105.025222770688, 39.7766437538929], [-105.025287038353, 39.7757673210017], [-105.025285969381, 39.7747134982821], [-105.025287282688, 39.7734409195425], [-105.02523008812, 39.7729370433218], [-105.025291509092, 39.7724340552874], [-105.025293748118, 39.7720454326451], [-105.025298854159, 39.7711358096895], [-105.02529914182, 39.7708409088823], [-105.025237798411, 39.7702227288492], [-105.025238265321, 39.7697594737028], [-105.025238785725, 39.7692890100273], [-105.025953683269, 39.769310765133], [-105.027610228272, 39.7693603182841], [-105.029969417238, 39.7694030472831], [-105.031537035755, 39.7694518468979], [-105.032300865402, 39.7694716985198], [-105.033072724765, 39.7694878023962], [-105.033644439901, 39.7695096280767], [-105.034044551201, 39.769524938675], [-105.034642940131, 39.7695478948925], [-105.035237976712, 39.7695399512031], [-105.035804549825, 39.7695325781671], [-105.03641116165, 39.7695226148605], [-105.036986643829, 39.7695128695714], [-105.037579125062, 39.769487745728], [-105.038155593843, 39.7694632427306], [-105.038740890903, 39.7694483796007], [-105.039337752881, 39.7694332162978], [-105.039918425453, 39.7694454383069], [-105.040499101254, 39.7694573148945], [-105.041086112307, 39.7694523982157], [-105.041674903835, 39.7694471423706], [-105.042264759939, 39.769415122209], [-105.042309244502, 39.7694125499962], [-105.04285639586, 39.7693827626831], [-105.043432765315, 39.769372989135], [-105.044012694121, 39.7693628829795], [-105.045149172698, 39.769382035573], [-105.045717477657, 39.7693814844037], [-105.04628578071, 39.7693812738556], [-105.047442046957, 39.7693661649982], [-105.047973010504, 39.7693637436795], [-105.048598251102, 39.7693606524403], [-105.048808992726, 39.7693662647731], [-105.049760616128, 39.7693651037056], [-105.050336064078, 39.7693600972869], [-105.050916850844, 39.7693547646987], [-105.051494999257, 39.7693446152986], [-105.052079373258, 39.7693344865969], [-105.052655679719, 39.7693342755511], [-105.053240880146, 39.7693340961897], [-105.053242804803, 39.7765681095577], [-105.053243744796, 39.7836716601443], [-105.053234469242, 39.7836745369219], [-105.052970516964, 39.7837490387013], [-105.052613767407, 39.7838849696122], [-105.052386048557, 39.7839929858024], [-105.051742756758, 39.7843195507932], [-105.050917829986, 39.7847424662946], [-105.050708725967, 39.7848174125081], [-105.050315181477, 39.784948461876], [-105.049842082534, 39.7850460677582], [-105.049697492963, 39.7850697399024], [-105.04941825127, 39.7851154564264], [-105.048862727323, 39.7851488345769], [-105.04853758717, 39.7851381203523], [-105.048249353767, 39.7851133446505], [-105.047985786057, 39.7850697275959], [-105.047709947098, 39.7850260626143], [-105.047403765592, 39.7849302061053], [-105.047091510363, 39.7848248577635], [-105.04681604023, 39.7847243841262], [-105.046485746561, 39.7845621569626], [-105.046097241516, 39.7843878689473], [-105.045253172507, 39.7839727553908], [-105.044745011266, 39.7838003681321], [-105.044236451898, 39.7836895188822], [-105.044034187832, 39.7836555980737], [-105.043785890733, 39.7836238650252], [-105.043540615621, 39.7835992445879], [-105.043307519663, 39.7835888726654], [-105.041009672909, 39.7835823047592], [-105.038282169669, 39.7835976782791], [-105.037214552673, 39.7835934870556], [-105.036625585037, 39.7835817022768], [-105.036269712415, 39.7835803012696], [-105.035561334128, 39.783532536817], [-105.034549474339, 39.7834480632233], [-105.033751988179, 39.7834212382203], [-105.033377804532, 39.7834055543147], [-105.033132407195, 39.7833998472556], [-105.032846892452, 39.7834294861527], [-105.032656590357, 39.783442932589], [-105.032441682118, 39.7834657494973], [-105.032110005923, 39.7835165057204], [-105.031702539652, 39.7835848243589], [-105.030055242577, 39.7838610053686], [-105.028090002228, 39.7841296489007], [-105.027313028345, 39.784235849688], [-105.026594694506, 39.7842992397716], [-105.026017674222, 39.7843347905519], [-105.025655438297, 39.7843664700306], [-105.025373096114, 39.7843795341443], [-105.025335730649, 39.7843806099123], [-105.025192461689, 39.7843847395043]]]}, "properties": {"NBHD_NAME": "Berkeley"}}, {"type": "Feature", "geometry": {"type": "Polygon", "coordinates": [[[-104.998175518856, 39.7825648301854], [-104.99820236239, 39.7783370219772], [-104.998194711237, 39.776548130401], [-104.998192510408, 39.7754888061237], [-104.998191798562, 39.7742215362472], [-104.998210483623, 39.7729780261396], [-104.998209631472, 39.7717303143631], [-104.998197991935, 39.7704986841549], [-104.998204327003, 39.7693867426434], [-104.998203286901, 39.7692973043426], [-104.998381209987, 39.7692960201866], [-105.000435707267, 39.7693200025075], [-105.000588374324, 39.7692872192716], [-105.001174482728, 39.7692845568535], [-105.001759701771, 39.7692818879541], [-105.00235915002, 39.7692792762966], [-105.002966602591, 39.7692766951811], [-105.003557985641, 39.7692826217686], [-105.003614011559, 39.7692832011905], [-105.004137807999, 39.7692884973429], [-105.0047052375, 39.769286081589], [-105.005287788471, 39.7692833839264], [-105.005861411853, 39.7692854501675], [-105.006048172701, 39.7692862339417], [-105.006458156055, 39.7692879534685], [-105.00703713282, 39.7692876339682], [-105.007438234902, 39.7692875971814], [-105.008033216883, 39.7692876828701], [-105.009618062837, 39.7692870892391], [-105.010217492179, 39.7692871824643], [-105.010614147348, 39.7692871163052], [-105.011202017252, 39.7692868134918], [-105.011801441034, 39.7692875849226], [-105.012199870908, 39.7692882069236], [-105.012368849297, 39.7692882208919], [-105.01279486482, 39.7692865532883], [-105.012965612565, 39.7692879459087], [-105.013374694872, 39.7692913533291], [-105.013535659893, 39.7692927050854], [-105.013785568271, 39.7692930510159], [-105.014108404115, 39.769293354519], [-105.0143992241, 39.7692935250275], [-105.014711385772, 39.7692941259679], [-105.014951530405, 39.7692916844006], [-105.015288621612, 39.769288268611], [-105.015868522677, 39.7692827625065], [-105.017422303839, 39.769273013637], [-105.017995054688, 39.7692726149245], [-105.0183943804, 39.7692721901632], [-105.018975137637, 39.7692714763147], [-105.020523550923, 39.769266125716], [-105.021122052818, 39.7692716503394], [-105.022061158888, 39.7692802709746], [-105.022906891544, 39.7692874760769], [-105.023624639159, 39.769282490134], [-105.024216937177, 39.7692848854214], [-105.02460557689, 39.7692864554836], [-105.025238785725, 39.7692890100273], [-105.025238265321, 39.7697594737028], [-105.025237798411, 39.7702227288492], [-105.02529914182, 39.7708409088823], [-105.025298854159, 39.7711358096895], [-105.025293748118, 39.7720454326451], [-105.025291509092, 39.7724340552874], [-105.02523008812, 39.7729370433218], [-105.025287282688, 39.7734409195425], [-105.025285969381, 39.7747134982821], [-105.025287038353, 39.7757673210017], [-105.025222770688, 39.7766437538929], [-105.025268284432, 39.777853547353], [-105.025257343875, 39.7790438848326], [-105.025250386528, 39.7798323522437], [-105.025188470007, 39.7802628476942], [-105.025245024914, 39.7809472953286], [-105.025242454299, 39.7821454512755], [-105.0252409525, 39.782571829877], [-105.025193178348, 39.7829886101484], [-105.025185957712, 39.783916722608], [-105.025191418603, 39.7843096956403], [-105.025192461689, 39.7843847395043], [-105.025084648972, 39.7843878391929], [-105.025012409821, 39.7843848460131], [-105.024388412845, 39.7843589916268], [-105.023934524697, 39.784333487526], [-105.023603417864, 39.7842990104102], [-105.023327468163, 39.7842742239475], [-105.022215497692, 39.784093678397], [-105.021847275118, 39.7840338893828], [-105.020762604437, 39.7838306518373], [-105.020333426226, 39.783781564304], [-105.020100494906, 39.7837474772067], [-105.019763224139, 39.7837176982632], [-105.019481045029, 39.7837070789652], [-105.019266294558, 39.7837062023921], [-105.018281460644, 39.7837092782874], [-105.016228943834, 39.7837174324716], [-105.014817888689, 39.7836879565024], [-105.011081659529, 39.7836109600044], [-105.010517272019, 39.7835944133082], [-105.009893965098, 39.7835504730025], [-105.009732264175, 39.7835390732341], [-105.008873794504, 39.783459751771], [-105.008380252172, 39.7834032511038], [-105.007681247678, 39.7833340542667], [-105.007043634516, 39.7832603768357], [-105.006693866664, 39.7832636461138], [-105.006635043117, 39.7832640666748], [-105.00627660621, 39.7832666310192], [-105.006204613919, 39.7832674398392], [-105.005969788645, 39.7832700780321], [-105.005693348719, 39.783316257489], [-105.005039145038, 39.7834200247925], [-105.004259107185, 39.7835303593799], [-105.003509845967, 39.7836266163086], [-105.003172180166, 39.7836535961313], [-105.002951437319, 39.7836667579368], [-105.002837632156, 39.7836734869138], [-105.002420570997, 39.7836480553135], [-105.002046628339, 39.7835991342171], [-105.001415524522, 39.783473379809], [-105.000292002232, 39.783134869673], [-104.999342798666, 39.782875201095], [-104.998356821673, 39.7826106344203], [-104.998175518856, 39.7825648301854]]]}, "properties": {"NBHD_NAME": "Sunnyside"}}, {"type": "Feature", "geometry": {"type": "Polygon", "coordinates": [[[-104.998203286901, 39.7692973043426], [-104.998205108362, 39.7691530073545], [-104.998206650425, 39.7680465389713], [-104.998246599334, 39.762119586281], [-104.998314126178, 39.7621001209151], [-104.998440543461, 39.7620804135761], [-104.998558955203, 39.7620610149208], [-104.998666737447, 39.7620357371819], [-104.998707514934, 39.7620236440866], [-104.99875228902, 39.762010365083], [-104.998826299797, 39.7619821983997], [-104.998971697125, 39.7619196766559], [-104.999042212124, 39.7618829160782], [-104.999198484186, 39.7617919585123], [-104.999332460339, 39.761709827758], [-104.999451157572, 39.7616502806106], [-104.999596615402, 39.7615791794701], [-104.999811633732, 39.761480235105], [-105.000023906089, 39.7613922598253], [-105.000462570587, 39.7612311232849], [-105.000848482834, 39.761109910839], [-105.001030171773, 39.7610705321454], [-105.001208159699, 39.7610513835582], [-105.001353104185, 39.7610519976719], [-105.001482084147, 39.7610467101001], [-105.001620036631, 39.7610301365121], [-105.001726905481, 39.7610079408156], [-105.001857018086, 39.7609683421068], [-105.001976521216, 39.7609201198371], [-105.002136158458, 39.7608552520152], [-105.002269990785, 39.7607926777287], [-105.002462570188, 39.7607221156619], [-105.002518713172, 39.760705194945], [-105.002648703514, 39.7606827530073], [-105.002785865635, 39.7606521054633], [-105.002837562451, 39.7606351658633], [-105.002882186693, 39.7606123628766], [-105.002967977999, 39.7605526732024], [-105.003019847392, 39.7605113701502], [-105.003168867383, 39.7604060402373], [-105.0034300667, 39.760221419422], [-105.003586348283, 39.7601277107175], [-105.003716759837, 39.7600455603254], [-105.003816910735, 39.7599670566357], [-105.003917938465, 39.7598902724719], [-105.004025229704, 39.7598080240893], [-105.004114901042, 39.7597023669924], [-105.004186804514, 39.7595942326678], [-105.004249757875, 39.7594942964113], [-105.004294713361, 39.7594244820799], [-105.004422235169, 39.7592476074207], [-105.004538012487, 39.7590967635589], [-105.004728707582, 39.7589143205534], [-105.004866531912, 39.7587893054268], [-105.005074926835, 39.7586186041], [-105.005157239198, 39.758547230326], [-105.005496716794, 39.7581982954238], [-105.005612308607, 39.7580731857448], [-105.005653574161, 39.7580218861391], [-105.0056985396, 39.757950354915], [-105.005755383196, 39.757833577897], [-105.005796061926, 39.7577393807286], [-105.00581169342, 39.7576663538926], [-105.0058273924, 39.7575837194278], [-105.005838587403, 39.7575093018151], [-105.00586924299, 39.757449378038], [-105.005943770774, 39.7573467442155], [-105.006033433657, 39.7572414284224], [-105.006115944364, 39.7571415731757], [-105.006175183678, 39.7570632393238], [-105.006328523327, 39.7568806372474], [-105.006440796582, 39.7567521715383], [-105.006507808419, 39.7566754954356], [-105.006597510384, 39.7565643459057], [-105.006645936376, 39.7565062123709], [-105.006747400183, 39.7563662867804], [-105.0068371212, 39.7562523919486], [-105.007023515865, 39.756047279105], [-105.007154438928, 39.7558906620662], [-105.007583783118, 39.7554034615937], [-105.008186492835, 39.7547920755573], [-105.008217839532, 39.7547827026077], [-105.008270251521, 39.7547670320051], [-105.008344130202, 39.7547560163507], [-105.008436662233, 39.7547478239482], [-105.008540752827, 39.7547396797375], [-105.008578157208, 39.7547312570203], [-105.008629930017, 39.7547026479187], [-105.00871932583, 39.7546343899222], [-105.009006163067, 39.754432781586], [-105.009069623876, 39.7543856907066], [-105.009154611656, 39.7543119234054], [-105.009271142033, 39.7541778920991], [-105.009330425744, 39.75409235043], [-105.009356491976, 39.7540523095932], [-105.009397712131, 39.7540068419368], [-105.009489391761, 39.7539270019333], [-105.010120304969, 39.7542626124329], [-105.010406687124, 39.7543974018663], [-105.011707715337, 39.7550097322334], [-105.011765407552, 39.7550307728281], [-105.013152386576, 39.7555365976651], [-105.014639455913, 39.7560788986208], [-105.014880927544, 39.7561450114517], [-105.015621536729, 39.7563477799517], [-105.015835427918, 39.7563038198805], [-105.016726835845, 39.7566279909685], [-105.016916646375, 39.7566974011049], [-105.017811739201, 39.757004420991], [-105.018479623473, 39.7572501094042], [-105.019296455693, 39.7575605725476], [-105.020538077197, 39.7580395346766], [-105.021368398434, 39.7584608771968], [-105.022071761413, 39.7584627058197], [-105.02262305311, 39.758466658713], [-105.02308453554, 39.7584702451689], [-105.023613597329, 39.7584741036], [-105.024374763298, 39.7584754658455], [-105.025233743069, 39.7584768746225], [-105.025235912961, 39.7602575146916], [-105.025223858506, 39.7608559298289], [-105.025241748557, 39.7620223852275], [-105.02524248668, 39.7624386351436], [-105.025244445215, 39.7631997621625], [-105.025278018549, 39.7637791681486], [-105.025281305642, 39.7646656790431], [-105.025282949815, 39.7650873672995], [-105.025233456855, 39.765610376542], [-105.025287591584, 39.7660788472278], [-105.025286861255, 39.7665121193107], [-105.025287546241, 39.767437738901], [-105.025288118776, 39.768156912787], [-105.02525047022, 39.7683515621883], [-105.025238785725, 39.7692890100273], [-105.02460557689, 39.7692864554836], [-105.024216937177, 39.7692848854214], [-105.023624639159, 39.769282490134], [-105.022906891544, 39.7692874760769], [-105.022061158888, 39.7692802709746], [-105.021122052818, 39.7692716503394], [-105.020523550923, 39.769266125716], [-105.018975137637, 39.7692714763147], [-105.0183943804, 39.7692721901632], [-105.017995054688, 39.7692726149245], [-105.017422303839, 39.769273013637], [-105.015868522677, 39.7692827625065], [-105.015288621612, 39.769288268611], [-105.014951530405, 39.7692916844006], [-105.014711385772, 39.7692941259679], [-105.0143992241, 39.7692935250275], [-105.014108404115, 39.769293354519], [-105.013785568271, 39.7692930510159], [-105.013535659893, 39.7692927050854], [-105.013374694872, 39.7692913533291], [-105.012965612565, 39.7692879459087], [-105.01279486482, 39.7692865532883], [-105.012368849297, 39.7692882208919], [-105.012199870908, 39.7692882069236], [-105.011801441034, 39.7692875849226], [-105.011202017252, 39.7692868134918], [-105.010614147348, 39.7692871163052], [-105.010217492179, 39.7692871824643], [-105.009618062837, 39.7692870892391], [-105.008033216883, 39.7692876828701], [-105.007438234902, 39.7692875971814], [-105.00703713282, 39.7692876339682], [-105.006458156055, 39.7692879534685], [-105.006048172701, 39.7692862339417], [-105.005861411853, 39.7692854501675], [-105.005287788471, 39.7692833839264], [-105.0047052375, 39.769286081589], [-105.004137807999, 39.7692884973429], [-105.003614011559, 39.7692832011905], [-105.003557985641, 39.7692826217686], [-105.002966602591, 39.7692766951811], [-105.00235915002, 39.7692792762966], [-105.001759701771, 39.7692818879541], [-105.001174482728, 39.7692845568535], [-105.000588374324, 39.7692872192716], [-105.000435707267, 39.7693200025075], [-104.998381209987, 39.7692960201866], [-104.998203286901, 39.7692973043426]]]}, "properties": {"NBHD_NAME": "Highland"}}, {"type": "Feature", "geometry": {"type": "Polygon", "coordinates": [[[-104.959447130438, 39.684728733927], [-104.959446846444, 39.6846045109689], [-104.959446411255, 39.6844134922073], [-104.95943461888, 39.6832970950314], [-104.959425125807, 39.6827876787821], [-104.959386117535, 39.6824860600236], [-104.959378368129, 39.6820356463668], [-104.959388503043, 39.6802529682204], [-104.959393323142, 39.6784258440753], [-104.959391523955, 39.6766313321753], [-104.959381221088, 39.6748427414679], [-104.9593851349, 39.6730295871045], [-104.959390234305, 39.6712145941514], [-104.959394435777, 39.6694079550403], [-104.959379283456, 39.6675952557254], [-104.959399346472, 39.6660256240594], [-104.95943410436, 39.6639251972683], [-104.959442073908, 39.6630485827213], [-104.959445111201, 39.6619112260646], [-104.959439314578, 39.6615662151537], [-104.963078944385, 39.6615880268842], [-104.963085297835, 39.6603779359709], [-104.968827792578, 39.660431066673], [-104.968804740127, 39.6658389284554], [-104.969964320545, 39.6658544800714], [-104.971134753207, 39.6658573498739], [-104.973500706887, 39.6658756313849], [-104.97348596618, 39.6676757453338], [-104.973485932281, 39.667684941828], [-104.973474913151, 39.6694921816504], [-104.973465030733, 39.6712794368437], [-104.973451455046, 39.6731109874813], [-104.973445519127, 39.6748492483171], [-104.973456612528, 39.6767023086702], [-104.973430647025, 39.6785129456353], [-104.97341638802, 39.6803325346894], [-104.973402184302, 39.6820786367115], [-104.973422598952, 39.6821450704486], [-104.973425228865, 39.6839810216536], [-104.973421632289, 39.6857473124248], [-104.97342408625, 39.6875610730225], [-104.973419609083, 39.6888818957179], [-104.973424011346, 39.6890397382413], [-104.973433023649, 39.6893627171022], [-104.973429276471, 39.6896847706919], [-104.973424217202, 39.6898239730851], [-104.973282403106, 39.689754416259], [-104.969913350297, 39.6881018146877], [-104.968842021691, 39.6875742283513], [-104.968607838646, 39.687458900541], [-104.968191387925, 39.6872538090281], [-104.965299643467, 39.6858239153804], [-104.964645964321, 39.6855143427373], [-104.964237657169, 39.6853418758346], [-104.963701519728, 39.6851465716764], [-104.963168226652, 39.6849982567412], [-104.96261822608, 39.6848765687957], [-104.962156822658, 39.6848094285916], [-104.961744320763, 39.6847679800115], [-104.961170170695, 39.6847319701654], [-104.960048385118, 39.6847304693683], [-104.959447130438, 39.684728733927]]]}, "properties": {"NBHD_NAME": "University"}}, {"type": "Feature", "geometry": {"type": "Polygon", "coordinates": [[[-104.960192494408, 39.7291094077256], [-104.960770250616, 39.7291093114873], [-104.96135067323, 39.7291092254225], [-104.961931992806, 39.7291081107608], [-104.962506201409, 39.7291069605403], [-104.963088409756, 39.7291058437736], [-104.963664393823, 39.7291050395828], [-104.964241292374, 39.7291008047545], [-104.96482263252, 39.7290969304797], [-104.965881278869, 39.7290941916697], [-104.966563949884, 39.7290900824593], [-104.967141732247, 39.7290865237739], [-104.967730153907, 39.7290864420646], [-104.968307021108, 39.7290863049961], [-104.968887444042, 39.7290861813513], [-104.969461641967, 39.7290863699508], [-104.97062157753, 39.729088849533], [-104.971778929194, 39.7290803243839], [-104.97293533762, 39.7290789906636], [-104.972948115667, 39.7304540906363], [-104.972979680224, 39.7320499251538], [-104.972978767332, 39.733709440987], [-104.972998994731, 39.735158007487], [-104.973008305617, 39.7368765909982], [-104.973019073456, 39.738401294569], [-104.972999809768, 39.7395452999685], [-104.97299165463, 39.7400390691633], [-104.972755205964, 39.7400359512584], [-104.972136532023, 39.7400273438439], [-104.971876947523, 39.7400272085249], [-104.971290219203, 39.7400262897647], [-104.970787947843, 39.7400250611854], [-104.970311443352, 39.7400256624349], [-104.970140755013, 39.7400259234077], [-104.96968825263, 39.7400266302086], [-104.968461560065, 39.7400111437373], [-104.96784814528, 39.7400124893015], [-104.967232068792, 39.7400131331131], [-104.966605358188, 39.7400092645008], [-104.965990202014, 39.7400057879621], [-104.965381263332, 39.7400030229593], [-104.964766102034, 39.7400002265017], [-104.964124271857, 39.7399973053819], [-104.963466440248, 39.7399943078029], [-104.962851258336, 39.7399942468555], [-104.962237850967, 39.7399945335769], [-104.961632468756, 39.7399917654267], [-104.961013751417, 39.7399889330824], [-104.960402124872, 39.7399888751642], [-104.95978160542, 39.7399891160668], [-104.959780851861, 39.7397248806165], [-104.959777038522, 39.7383892878792], [-104.959784746988, 39.7368114761445], [-104.959793042823, 39.7350418407802], [-104.959795488302, 39.7334547380559], [-104.959799177952, 39.7322832070734], [-104.959833724017, 39.7319525590962], [-104.959844436703, 39.7314848811955], [-104.959839550684, 39.7310806163669], [-104.959897577796, 39.7309326374927], [-104.960094200284, 39.7306782285852], [-104.960169400666, 39.7304932671426], [-104.960192494408, 39.7291094077256]]]}, "properties": {"NBHD_NAME": "Cheesman Park"}}, {"type": "Feature", "geometry": {"type": "Polygon", "coordinates": [[[-104.940687294851, 39.6829623157238], [-104.940689618979, 39.6826273317915], [-104.940686768543, 39.6816981575268], [-104.940687091264, 39.6808074149541], [-104.940683596734, 39.6800984406913], [-104.940748368146, 39.6784151507823], [-104.940731288442, 39.6765975533563], [-104.940718089956, 39.6748153901312], [-104.940702365202, 39.6743136489461], [-104.940707536989, 39.6733207355258], [-104.940695614336, 39.6718880510052], [-104.940679666606, 39.6683297393997], [-104.940679575948, 39.6675608422865], [-104.941773137934, 39.6675587754482], [-104.942798644424, 39.667559303832], [-104.943823225458, 39.6675626852821], [-104.944367596762, 39.6675648255828], [-104.944843864544, 39.6675631478995], [-104.945362551962, 39.6675649709224], [-104.945822363301, 39.6675661093341], [-104.945986281601, 39.6675636198858], [-104.946064974622, 39.6675589250639], [-104.946183193225, 39.6675290884053], [-104.946461159288, 39.667438426595], [-104.946944831768, 39.667276565362], [-104.947175413924, 39.6671912273072], [-104.947407480738, 39.6671153550271], [-104.947789437347, 39.6670179659154], [-104.947931127961, 39.6669959351102], [-104.948069386707, 39.6669795102894], [-104.948296951375, 39.6669520932827], [-104.948508923842, 39.6669407256024], [-104.948683584036, 39.6669436121173], [-104.948914154711, 39.6669522430518], [-104.94900291997, 39.6669574665845], [-104.949073027001, 39.6669639698766], [-104.949143112731, 39.6669732227311], [-104.949212290339, 39.6669848709306], [-104.949316038836, 39.6670049183698], [-104.949545645212, 39.6670513796789], [-104.949644277679, 39.6670764815505], [-104.949816774138, 39.6671234118356], [-104.949995357609, 39.6671815033145], [-104.950109190383, 39.6672179630595], [-104.950257988196, 39.667281338617], [-104.950404718484, 39.6673610702417], [-104.950624674132, 39.6674961711208], [-104.950782754749, 39.6675446229074], [-104.95145198263, 39.6675723487547], [-104.952370960142, 39.6675760037435], [-104.953295432781, 39.6675753334799], [-104.95383715821, 39.6675805701314], [-104.955123214556, 39.6675800327215], [-104.956541962895, 39.667582225623], [-104.957961320303, 39.6675886781718], [-104.959379283456, 39.6675952557254], [-104.959394435777, 39.6694079550403], [-104.959390234305, 39.6712145941514], [-104.9593851349, 39.6730295871045], [-104.959381221088, 39.6748427414679], [-104.959391523955, 39.6766313321753], [-104.959393323142, 39.6784258440753], [-104.959388503043, 39.6802529682204], [-104.959378368129, 39.6820356463668], [-104.959386117535, 39.6824860600236], [-104.959425125807, 39.6827876787821], [-104.95943461888, 39.6832970950314], [-104.959446411255, 39.6844134922073], [-104.959446846444, 39.6846045109689], [-104.959447130438, 39.684728733927], [-104.95856369428, 39.6847261782749], [-104.955493954147, 39.6847298608999], [-104.953747934044, 39.6847392209004], [-104.95123154872, 39.6847372565504], [-104.950602946306, 39.6847272299181], [-104.950328388412, 39.6847228494494], [-104.950078693083, 39.684718865076], [-104.949599123284, 39.6847003641811], [-104.948619148779, 39.6846372491074], [-104.947858112789, 39.6845588980257], [-104.946870290103, 39.684424202983], [-104.946176917607, 39.6843038922491], [-104.944899840483, 39.6840312633774], [-104.943765815453, 39.6837389623171], [-104.94306037088, 39.6835738851246], [-104.941939084531, 39.6832922077145], [-104.941246713746, 39.6831224651759], [-104.940985474307, 39.6830476784628], [-104.940687294851, 39.6829623157238]]]}, "properties": {"NBHD_NAME": "University Park"}}, {"type": "Feature", "geometry": {"type": "Polygon", "coordinates": [[[-104.973424217202, 39.6898239730851], [-104.973429276471, 39.6896847706919], [-104.973433023649, 39.6893627171022], [-104.973424011346, 39.6890397382413], [-104.973419609083, 39.6888818957179], [-104.97342408625, 39.6875610730225], [-104.973421632289, 39.6857473124248], [-104.973425228865, 39.6839810216536], [-104.973422598952, 39.6821450704486], [-104.973402184302, 39.6820786367115], [-104.97341638802, 39.6803325346894], [-104.973430647025, 39.6785129456353], [-104.974593879779, 39.6785196287106], [-104.975751649672, 39.6785269074791], [-104.976910970235, 39.6785292411091], [-104.978127740827, 39.6785322994884], [-104.979360530909, 39.6785460382578], [-104.980523181547, 39.6785697035495], [-104.981680103929, 39.6785693567891], [-104.982885580238, 39.6785647849541], [-104.984074729297, 39.6785616105029], [-104.985224010195, 39.6785609369693], [-104.98636968782, 39.6785544746044], [-104.987567216355, 39.6785195191448], [-104.987571394983, 39.6803277885629], [-104.987568648741, 39.6821492696303], [-104.98754551589, 39.6839661424412], [-104.987533896023, 39.685777713272], [-104.987512696759, 39.6875744712452], [-104.987499843456, 39.6894000986667], [-104.987480258076, 39.6911686296008], [-104.987468280824, 39.6930193014376], [-104.987449325419, 39.6947988700878], [-104.987430740281, 39.6966343058692], [-104.986219401112, 39.6966282116502], [-104.985070486918, 39.6966253482029], [-104.983942651417, 39.6966204137444], [-104.982769559986, 39.6966595761057], [-104.982218069053, 39.6966577485325], [-104.982027445619, 39.696489191259], [-104.981170409621, 39.695742379916], [-104.981050153057, 39.6956411801129], [-104.980272819239, 39.6950277408959], [-104.979884312559, 39.6947000472745], [-104.979414176061, 39.6942845191396], [-104.979107541344, 39.6940134978314], [-104.979098519324, 39.6940053582571], [-104.978139475282, 39.6931401117973], [-104.976797709079, 39.6919295250271], [-104.976160986262, 39.6913949951416], [-104.975787636898, 39.691120086432], [-104.975176304595, 39.6907242699102], [-104.974740664419, 39.6904826362084], [-104.973605648544, 39.689912966484], [-104.973560070844, 39.6898906112431], [-104.973424217202, 39.6898239730851]]]}, "properties": {"NBHD_NAME": "Platt Park"}}, {"type": "Feature", "geometry": {"type": "Polygon", "coordinates": [[[-104.940696653426, 39.6954045047206], [-104.940695895778, 39.6947624271797], [-104.940632850525, 39.694762471493], [-104.940632920786, 39.6947564275324], [-104.940629953095, 39.6929418291689], [-104.940647994091, 39.6911297804946], [-104.940628959292, 39.6893214025379], [-104.94065139814, 39.6874931697676], [-104.940692957716, 39.6856869549725], [-104.940708408604, 39.6848925618427], [-104.940688958264, 39.6844420394712], [-104.940688110818, 39.6834338144661], [-104.940687394974, 39.683128279689], [-104.940686780163, 39.6830432110722], [-104.940687294851, 39.6829623157238], [-104.940985474307, 39.6830476784628], [-104.941246713746, 39.6831224651759], [-104.941939084531, 39.6832922077145], [-104.94306037088, 39.6835738851246], [-104.943765815453, 39.6837389623171], [-104.944899840483, 39.6840312633774], [-104.946176917607, 39.6843038922491], [-104.946870290103, 39.684424202983], [-104.947858112789, 39.6845588980257], [-104.948619148779, 39.6846372491074], [-104.949599123284, 39.6847003641811], [-104.950078693083, 39.684718865076], [-104.950328388412, 39.6847228494494], [-104.950602946306, 39.6847272299181], [-104.95123154872, 39.6847372565504], [-104.953747934044, 39.6847392209004], [-104.955493954147, 39.6847298608999], [-104.95856369428, 39.6847261782749], [-104.959447130438, 39.684728733927], [-104.959447441017, 39.6848656318114], [-104.959446801725, 39.6850220745941], [-104.959446304838, 39.6851436966793], [-104.959444208413, 39.6863686739021], [-104.959394675788, 39.6875066709161], [-104.959352683553, 39.6893052049589], [-104.959344193039, 39.6911481523059], [-104.959343141282, 39.6929629305505], [-104.959337181333, 39.6947744702023], [-104.959321475005, 39.696582531861], [-104.958103414793, 39.6965834462993], [-104.956963531004, 39.6965847074899], [-104.955822811151, 39.6965794344031], [-104.954669616717, 39.6965788965546], [-104.953516392645, 39.6965821224166], [-104.952355164648, 39.6965863287923], [-104.951193147667, 39.6965778232237], [-104.950018617407, 39.6965788562069], [-104.948844138382, 39.6965733575336], [-104.947686512948, 39.6965713580611], [-104.946528862705, 39.6965724352672], [-104.945371212686, 39.6965735012793], [-104.944188711419, 39.6965713496479], [-104.943026619165, 39.6965723717848], [-104.941881458359, 39.6965669424263], [-104.941316393863, 39.6965687206966], [-104.94069803089, 39.6965695558555], [-104.940696653426, 39.6954045047206]]]}, "properties": {"NBHD_NAME": "Cory - Merrill"}}, {"type": "Feature", "geometry": {"type": "Polygon", "coordinates": [[[-104.940704692328, 39.7115637933913], [-104.940686363142, 39.7110760707139], [-104.94069094063, 39.703813379736], [-104.940696788438, 39.6977287605985], [-104.940027752574, 39.6977320969315], [-104.940026197307, 39.6979270070673], [-104.938562856513, 39.6979327269984], [-104.938564151563, 39.696660278125], [-104.939553005414, 39.696658474587], [-104.93955372066, 39.6965689122814], [-104.940611841059, 39.696571204845], [-104.94069803089, 39.6965695558555], [-104.941316393863, 39.6965687206966], [-104.941881458359, 39.6965669424263], [-104.943026619165, 39.6965723717848], [-104.944188711419, 39.6965713496479], [-104.945371212686, 39.6965735012793], [-104.946528862705, 39.6965724352672], [-104.947686512948, 39.6965713580611], [-104.948844138382, 39.6965733575336], [-104.950018617407, 39.6965788562069], [-104.951193147667, 39.6965778232237], [-104.952355164648, 39.6965863287923], [-104.953516392645, 39.6965821224166], [-104.954669616717, 39.6965788965546], [-104.955822811151, 39.6965794344031], [-104.956963531004, 39.6965847074899], [-104.958103414793, 39.6965834462993], [-104.959321475005, 39.696582531861], [-104.959328816888, 39.6983972185376], [-104.959328067571, 39.7002242208383], [-104.959333683836, 39.7020323770836], [-104.959359555683, 39.7038639604058], [-104.959328782475, 39.7056667996573], [-104.959323140734, 39.7073215067981], [-104.959328059781, 39.7074903656416], [-104.959327434822, 39.7093012337026], [-104.959308641053, 39.7109328862474], [-104.959261006209, 39.7111179752914], [-104.959314248854, 39.7111876199906], [-104.959314842285, 39.7117262100668], [-104.959307664419, 39.7129706198084], [-104.959301765566, 39.71399333787], [-104.959300725499, 39.7141736022136], [-104.959302567156, 39.7145133061004], [-104.959306901283, 39.7153129482674], [-104.959308766433, 39.7156570653317], [-104.958971589301, 39.7156920278838], [-104.958903987108, 39.7156999524005], [-104.95880791721, 39.7157118651714], [-104.958655767137, 39.7157358723622], [-104.958478755579, 39.7157570202713], [-104.958351553449, 39.71577256287], [-104.958114155785, 39.7157879418821], [-104.95790156552, 39.7158130422244], [-104.957798396822, 39.7158235480848], [-104.957660531111, 39.7158390409351], [-104.95755112014, 39.7158522630373], [-104.95740882945, 39.7158653333293], [-104.957210616624, 39.7158699097528], [-104.957072875238, 39.715869274086], [-104.956793826522, 39.7158693581699], [-104.956687166548, 39.7158716108165], [-104.956613429616, 39.715868524979], [-104.956482078567, 39.7158459559282], [-104.956365810874, 39.7158265445569], [-104.956284140171, 39.7158151857782], [-104.9561003586, 39.7157923740929], [-104.955991160595, 39.7157781427884], [-104.955905956501, 39.7157640217146], [-104.955807451672, 39.7157460648198], [-104.955725780307, 39.7157347057997], [-104.955598703011, 39.7157341177475], [-104.955495619113, 39.7157336406241], [-104.9554387882, 39.7157278869151], [-104.955343829825, 39.7157109756893], [-104.955265777837, 39.7156913972395], [-104.955089167814, 39.7156607240408], [-104.954951639606, 39.7156326337298], [-104.954792763306, 39.7156071900035], [-104.954721767052, 39.7155945067409], [-104.954630404027, 39.7155724643042], [-104.95450635559, 39.7155252187371], [-104.954365356276, 39.7154864741129], [-104.954245580684, 39.7154612105565], [-104.954107036931, 39.7154495869826], [-104.95403332114, 39.7154437541824], [-104.953944560651, 39.7154299585567], [-104.953846005779, 39.7154185199004], [-104.953778575613, 39.7154044802542], [-104.95369703349, 39.7153766484302], [-104.953630585294, 39.7153506026592], [-104.953503089995, 39.7152896138659], [-104.953351684906, 39.7152178758905], [-104.953196811005, 39.71513514018], [-104.953063157619, 39.7150662293836], [-104.952903777306, 39.7149917084487], [-104.952812587245, 39.7149477029185], [-104.952702927629, 39.7148789032663], [-104.952657853198, 39.7148471225701], [-104.952594125306, 39.7148142255603], [-104.952502070629, 39.7147671271394], [-104.952421415694, 39.71473964213], [-104.952220187594, 39.714675563071], [-104.952117359843, 39.7146424837104], [-104.952033131961, 39.7146173838509], [-104.951933794465, 39.7145925565109], [-104.951860102241, 39.714583977261], [-104.951732373966, 39.7145531833843], [-104.951683606254, 39.7145392297121], [-104.951609258324, 39.7145007922248], [-104.951534977537, 39.7144537760991], [-104.951500554108, 39.7144237599618], [-104.951429903071, 39.7143671519977], [-104.951296722849, 39.7142381881339], [-104.951194347051, 39.7141474587396], [-104.951117678105, 39.7140650851352], [-104.951015428791, 39.7139582277472], [-104.950928053443, 39.7138812947272], [-104.950878845741, 39.7138100302575], [-104.950776428195, 39.7137247907691], [-104.950717274389, 39.7136754426757], [-104.950660702946, 39.7136367439979], [-104.95063237484, 39.7136228853361], [-104.950509282894, 39.7135677476139], [-104.950452668647, 39.7135345393188], [-104.950403161391, 39.7135017077342], [-104.950326248658, 39.7134505601067], [-104.950205801816, 39.7133981798647], [-104.950121702582, 39.7133569499887], [-104.950061663635, 39.7133072540867], [-104.950030143714, 39.7132470532572], [-104.950034190814, 39.7131842735256], [-104.95002012284, 39.7131649904989], [-104.950014262622, 39.7131640091391], [-104.949952674342, 39.7131536941929], [-104.949896796197, 39.7131400492452], [-104.949787207171, 39.7130630116563], [-104.949646646153, 39.7129693565918], [-104.949590075865, 39.7129306579915], [-104.949467072633, 39.7128645384478], [-104.949385661742, 39.7128205755727], [-104.949315870303, 39.7127680881793], [-104.949252339806, 39.7127104825014], [-104.949203027651, 39.7126529436186], [-104.949147818192, 39.7125541971402], [-104.949130452419, 39.7125022984648], [-104.94909559536, 39.7124146283945], [-104.949064055047, 39.7123571726802], [-104.949039518942, 39.7123131329527], [-104.948997272587, 39.712261117507], [-104.948903091834, 39.7121460598995], [-104.948853653154, 39.7121046486961], [-104.948800614092, 39.7120690544184], [-104.948723694091, 39.7120192784925], [-104.948642305699, 39.7119725699442], [-104.948599933614, 39.7119366824434], [-104.948551618486, 39.7118654211172], [-104.948509480909, 39.7117996796231], [-104.94845650699, 39.7117558496063], [-104.948365153699, 39.7117334587039], [-104.948255096325, 39.7117164706848], [-104.948201953129, 39.711694259084], [-104.948117867843, 39.7116516555797], [-104.948032883348, 39.7116104200152], [-104.947973649559, 39.7115717083111], [-104.947892457187, 39.7115002921967], [-104.946182772544, 39.7114946566121], [-104.945579403187, 39.7114931873868], [-104.944974253725, 39.711492049245], [-104.944383324024, 39.7114906319798], [-104.943768402942, 39.7114890982446], [-104.943164098549, 39.7114934456787], [-104.942559793305, 39.7114977895527], [-104.942185108085, 39.7114695815], [-104.941349415171, 39.7114431703319], [-104.940908704355, 39.7114635213741], [-104.940704692328, 39.7115637933913]]]}, "properties": {"NBHD_NAME": "Belcaro"}}, {"type": "Feature", "geometry": {"type": "Polygon", "coordinates": [[[-104.959308766433, 39.7156570653317], [-104.959306901283, 39.7153129482674], [-104.959302567156, 39.7145133061004], [-104.959300725499, 39.7141736022136], [-104.959301765566, 39.71399333787], [-104.959307664419, 39.7129706198084], [-104.959314842285, 39.7117262100668], [-104.959314248854, 39.7111876199906], [-104.959261006209, 39.7111179752914], [-104.959308641053, 39.7109328862474], [-104.959327434822, 39.7093012337026], [-104.959328059781, 39.7074903656416], [-104.959323140734, 39.7073215067981], [-104.959328782475, 39.7056667996573], [-104.959359555683, 39.7038639604058], [-104.959333683836, 39.7020323770836], [-104.959328067571, 39.7002242208383], [-104.959328816888, 39.6983972185376], [-104.959321475005, 39.696582531861], [-104.959337181333, 39.6947744702023], [-104.959343141282, 39.6929629305505], [-104.959344193039, 39.6911481523059], [-104.959352683553, 39.6893052049589], [-104.959394675788, 39.6875066709161], [-104.959444208413, 39.6863686739021], [-104.959446304838, 39.6851436966793], [-104.959446801725, 39.6850220745941], [-104.959447441017, 39.6848656318114], [-104.959447130438, 39.684728733927], [-104.960048385118, 39.6847304693683], [-104.961170170695, 39.6847319701654], [-104.961744320763, 39.6847679800115], [-104.962156822658, 39.6848094285916], [-104.96261822608, 39.6848765687957], [-104.963168226652, 39.6849982567412], [-104.963701519728, 39.6851465716764], [-104.964237657169, 39.6853418758346], [-104.964645964321, 39.6855143427373], [-104.965299643467, 39.6858239153804], [-104.968191387925, 39.6872538090281], [-104.968607838646, 39.687458900541], [-104.968842021691, 39.6875742283513], [-104.969913350297, 39.6881018146877], [-104.973282403106, 39.689754416259], [-104.973424217202, 39.6898239730851], [-104.973417745598, 39.6900020428467], [-104.973426401899, 39.6904720044737], [-104.97342685219, 39.6907469386071], [-104.973426292153, 39.6911335639374], [-104.973413938236, 39.6929715983997], [-104.973412615744, 39.6947470604149], [-104.973388017133, 39.6966044981944], [-104.973381101023, 39.6983549467132], [-104.973400960816, 39.6984315614017], [-104.973389440163, 39.7002036075979], [-104.973383525457, 39.7020573507087], [-104.973378867255, 39.7038620258944], [-104.973373268797, 39.7056735590254], [-104.973373845925, 39.7074909520046], [-104.973376292905, 39.7092959988354], [-104.97339289853, 39.7111090002799], [-104.973394067722, 39.7115451648229], [-104.9733971053, 39.7129164545034], [-104.973392387749, 39.7147290149441], [-104.973145332862, 39.7147296254585], [-104.973145981275, 39.7165367174964], [-104.973150950422, 39.7180051281699], [-104.973232162978, 39.7181966328986], [-104.973247941422, 39.7184035580954], [-104.97313747985, 39.7183787706087], [-104.973021268118, 39.7183507969778], [-104.972953943696, 39.7183356823421], [-104.972873101852, 39.718317532809], [-104.972763111261, 39.7182895869993], [-104.972703672236, 39.7182755942623], [-104.972106634419, 39.7181335928681], [-104.971852003081, 39.71807651455], [-104.971773902256, 39.7180624375525], [-104.971682533313, 39.7180400648111], [-104.971551274094, 39.718004129615], [-104.971413673173, 39.7179842944019], [-104.971325858582, 39.717961937353], [-104.971208881093, 39.7179178303044], [-104.971110423911, 39.7178926798677], [-104.970982740935, 39.7178540148774], [-104.97089516493, 39.7178000878812], [-104.970795961531, 39.7177560601606], [-104.970750783803, 39.7177366395161], [-104.970683368477, 39.7177198646306], [-104.970587533462, 39.7177005593], [-104.970485625505, 39.7176616664324], [-104.97033405266, 39.7176091667175], [-104.970245454322, 39.7175730791533], [-104.970136476154, 39.7175290064479], [-104.970090472102, 39.7175013465721], [-104.9700197799, 39.7174478378968], [-104.969939280691, 39.7173984030403], [-104.96986500556, 39.7173486530481], [-104.969790769432, 39.7172937560435], [-104.969721038946, 39.7172306428433], [-104.96962934082, 39.7171344874334], [-104.969538510583, 39.7170410810463], [-104.969429140366, 39.71693146258], [-104.969355938758, 39.716857352604], [-104.969278335921, 39.7167777318], [-104.969214806104, 39.7167173922977], [-104.969145058014, 39.7166566807148], [-104.969077881198, 39.7166086781876], [-104.968990191143, 39.7165701913481], [-104.968905294858, 39.7165149023102], [-104.968841724361, 39.7164600526356], [-104.96879319823, 39.7164135065722], [-104.968733327934, 39.7163394565916], [-104.968714241258, 39.7163189960179], [-104.968620491338, 39.7162184970028], [-104.968490882495, 39.7160827054935], [-104.968459242041, 39.7160362359809], [-104.968400221796, 39.715967337153], [-104.968343885851, 39.7158960477161], [-104.96826981864, 39.7158191876266], [-104.968196682102, 39.7157368412716], [-104.968119018795, 39.7156654559496], [-104.968037801635, 39.7155940540505], [-104.967971649503, 39.7155282107053], [-104.96790096064, 39.7154747013198], [-104.967756982954, 39.7153590904561], [-104.967567084912, 39.7152051808703], [-104.967398035371, 39.7151145068846], [-104.967291897978, 39.7150481393612], [-104.967161949928, 39.7149576422507], [-104.96701423233, 39.7148667215998], [-104.966883211155, 39.7148005840751], [-104.9667885019, 39.7147507394084], [-104.966675253856, 39.7146846820108], [-104.966548854124, 39.7145952300328], [-104.96645073391, 39.7145264955787], [-104.966365860695, 39.7144688024422], [-104.966309319133, 39.7144249643832], [-104.966242984891, 39.71438348412], [-104.966150940157, 39.7143339940478], [-104.96605619027, 39.7142896390707], [-104.965960486066, 39.7142538589307], [-104.965875323546, 39.7142342552341], [-104.965833578832, 39.7142313202332], [-104.965762550616, 39.7142227619961], [-104.965684392843, 39.7142169165195], [-104.965649756816, 39.7142140137436], [-104.965596459594, 39.7142110264292], [-104.965543204463, 39.7142025483523], [-104.965507708587, 39.7141958671502], [-104.965451850376, 39.7141791415374], [-104.965380926851, 39.714156856949], [-104.965313536653, 39.7141373334168], [-104.965250485922, 39.7141315563203], [-104.96517579879, 39.7141367072386], [-104.965108137111, 39.7141528713639], [-104.965002201163, 39.7141770972944], [-104.964906042536, 39.7142010242266], [-104.964839269349, 39.7142171922392], [-104.964743087566, 39.7142442077535], [-104.964661973182, 39.7142764388103], [-104.964601378221, 39.7142981256849], [-104.964515775838, 39.7143361700716], [-104.964384614481, 39.7144052347737], [-104.964281962761, 39.7144648206379], [-104.964192661128, 39.714521722035], [-104.964121255661, 39.714562576391], [-104.964068576877, 39.7145949366282], [-104.964043590188, 39.7146085491271], [-104.963979524223, 39.7146192385598], [-104.963936806772, 39.714627279961], [-104.963891423254, 39.7146353088445], [-104.963827233989, 39.7146621262358], [-104.963777259942, 39.7146893509219], [-104.963709453403, 39.7147243876758], [-104.963585722212, 39.7147512766383], [-104.963465545939, 39.7147781814348], [-104.963376442718, 39.714809002596], [-104.963319317397, 39.7148416859441], [-104.963198639403, 39.7149341318285], [-104.963119916228, 39.7150020621886], [-104.963060085169, 39.715039879755], [-104.963024350305, 39.7150644243296], [-104.962956666481, 39.7150833325564], [-104.962864991341, 39.7151017880146], [-104.96276527384, 39.7151260401268], [-104.962634390247, 39.7151583856491], [-104.96247156048, 39.7151847516412], [-104.962290828635, 39.7152278503364], [-104.962144777237, 39.715268019116], [-104.962081525086, 39.715288319321], [-104.962006668342, 39.7153154302663], [-104.961900648306, 39.715350290996], [-104.961751060079, 39.7153880404473], [-104.961588082173, 39.7154336215599], [-104.961457239672, 39.7154604755356], [-104.961361141821, 39.7154761643366], [-104.961255329064, 39.7154839154783], [-104.961159323118, 39.7154875937917], [-104.961049955858, 39.7154953286168], [-104.960940567158, 39.7155058082798], [-104.960848041857, 39.7155191110256], [-104.960742229237, 39.7155268618575], [-104.960617754922, 39.7155345270745], [-104.960472801668, 39.71554724573], [-104.960334933866, 39.7155630848814], [-104.960206883531, 39.7155734784461], [-104.960143684063, 39.7155869151579], [-104.960093824116, 39.7155990400923], [-104.960051063176, 39.7156125701608], [-104.959990553057, 39.7156229303654], [-104.959927395574, 39.7156308765264], [-104.959831357656, 39.7156386712169], [-104.959743381098, 39.7156382671887], [-104.959690167353, 39.7156242962314], [-104.959579932162, 39.715629280717], [-104.959488316486, 39.7156398408835], [-104.959399387836, 39.7156476680892], [-104.959330342211, 39.7156548278888], [-104.959308766433, 39.7156570653317]]]}, "properties": {"NBHD_NAME": "Washington Park"}}, {"type": "Feature", "geometry": {"type": "Polygon", "coordinates": [[[-104.973424217202, 39.6898239730851], [-104.973560070844, 39.6898906112431], [-104.973605648544, 39.689912966484], [-104.974740664419, 39.6904826362084], [-104.975176304595, 39.6907242699102], [-104.975787636898, 39.691120086432], [-104.976160986262, 39.6913949951416], [-104.976797709079, 39.6919295250271], [-104.978139475282, 39.6931401117973], [-104.979098519324, 39.6940053582571], [-104.979107541344, 39.6940134978314], [-104.979414176061, 39.6942845191396], [-104.979884312559, 39.6947000472745], [-104.980272819239, 39.6950277408959], [-104.981050153057, 39.6956411801129], [-104.981170409621, 39.695742379916], [-104.982027445619, 39.696489191259], [-104.982218069053, 39.6966577485325], [-104.982769559986, 39.6966595761057], [-104.983942651417, 39.6966204137444], [-104.985070486918, 39.6966253482029], [-104.986219401112, 39.6966282116502], [-104.987430740281, 39.6966343058692], [-104.987475490398, 39.7002129076095], [-104.987477147944, 39.7003454600562], [-104.987469590148, 39.7010152820029], [-104.987475311938, 39.701185627888], [-104.987494895213, 39.7012672235], [-104.987528987081, 39.7014092719538], [-104.987540358745, 39.7015305112844], [-104.987546274413, 39.701727470265], [-104.98755751849, 39.7019205540474], [-104.987561937499, 39.7019964455056], [-104.987528056323, 39.7021342479868], [-104.987487911308, 39.702642984607], [-104.987488044435, 39.7033547053726], [-104.987488644723, 39.7038807766559], [-104.987557771209, 39.705730382186], [-104.987622781722, 39.70753570066], [-104.987601803919, 39.7084614614041], [-104.987598080243, 39.7093365090183], [-104.987581714757, 39.7102389544269], [-104.987575003439, 39.7111579131304], [-104.986963623135, 39.711158679808], [-104.986369126332, 39.7111595166338], [-104.98577909749, 39.7111569386408], [-104.985194400941, 39.711154381026], [-104.984612382315, 39.7111501166903], [-104.98401436903, 39.7111457790595], [-104.983432337853, 39.7111432243774], [-104.982781885362, 39.7111403659689], [-104.982135925431, 39.7111306602942], [-104.982127928229, 39.7111306250842], [-104.982104824749, 39.7111305233615], [-104.981531723172, 39.7111221649327], [-104.980969236369, 39.7111203705189], [-104.980382755067, 39.7111188105981], [-104.979798078866, 39.7111134810071], [-104.979225843619, 39.7111082035923], [-104.978662485998, 39.7111039920309], [-104.978082245541, 39.71109970301], [-104.977497518306, 39.7111012250558], [-104.976907460167, 39.7111027204874], [-104.976320958551, 39.7111038852119], [-104.975736231763, 39.7111053985044], [-104.975153284411, 39.7111065736502], [-104.974560562499, 39.7111077018915], [-104.973966954495, 39.7111084803546], [-104.97339289853, 39.7111090002799], [-104.973376292905, 39.7092959988354], [-104.973373845925, 39.7074909520046], [-104.973373268797, 39.7056735590254], [-104.973378867255, 39.7038620258944], [-104.973383525457, 39.7020573507087], [-104.973389440163, 39.7002036075979], [-104.973400960816, 39.6984315614017], [-104.973381101023, 39.6983549467132], [-104.973388017133, 39.6966044981944], [-104.973412615744, 39.6947470604149], [-104.973413938236, 39.6929715983997], [-104.973426292153, 39.6911335639374], [-104.97342685219, 39.6907469386071], [-104.973426401899, 39.6904720044737], [-104.973417745598, 39.6900020428467], [-104.973424217202, 39.6898239730851]]]}, "properties": {"NBHD_NAME": "Washington Park West"}}, {"type": "Feature", "geometry": {"type": "Polygon", "coordinates": [[[-104.940704692328, 39.7115637933913], [-104.940908704355, 39.7114635213741], [-104.941349415171, 39.7114431703319], [-104.942185108085, 39.7114695815], [-104.942559793305, 39.7114977895527], [-104.943164098549, 39.7114934456787], [-104.943768402942, 39.7114890982446], [-104.944383324024, 39.7114906319798], [-104.944974253725, 39.711492049245], [-104.945579403187, 39.7114931873868], [-104.946182772544, 39.7114946566121], [-104.947892457187, 39.7115002921967], [-104.947973649559, 39.7115717083111], [-104.948032883348, 39.7116104200152], [-104.948117867843, 39.7116516555797], [-104.948201953129, 39.711694259084], [-104.948255096325, 39.7117164706848], [-104.948365153699, 39.7117334587039], [-104.94845650699, 39.7117558496063], [-104.948509480909, 39.7117996796231], [-104.948551618486, 39.7118654211172], [-104.948599933614, 39.7119366824434], [-104.948642305699, 39.7119725699442], [-104.948723694091, 39.7120192784925], [-104.948800614092, 39.7120690544184], [-104.948853653154, 39.7121046486961], [-104.948903091834, 39.7121460598995], [-104.948997272587, 39.712261117507], [-104.949039518942, 39.7123131329527], [-104.949064055047, 39.7123571726802], [-104.94909559536, 39.7124146283945], [-104.949130452419, 39.7125022984648], [-104.949147818192, 39.7125541971402], [-104.949203027651, 39.7126529436186], [-104.949252339806, 39.7127104825014], [-104.949315870303, 39.7127680881793], [-104.949385661742, 39.7128205755727], [-104.949467072633, 39.7128645384478], [-104.949590075865, 39.7129306579915], [-104.949646646153, 39.7129693565918], [-104.949787207171, 39.7130630116563], [-104.949896796197, 39.7131400492452], [-104.949952674342, 39.7131536941929], [-104.950014262622, 39.7131640091391], [-104.95002012284, 39.7131649904989], [-104.950034190814, 39.7131842735256], [-104.950030143714, 39.7132470532572], [-104.950061663635, 39.7133072540867], [-104.950121702582, 39.7133569499887], [-104.950205801816, 39.7133981798647], [-104.950326248658, 39.7134505601067], [-104.950403161391, 39.7135017077342], [-104.950452668647, 39.7135345393188], [-104.950509282894, 39.7135677476139], [-104.95063237484, 39.7136228853361], [-104.950660702946, 39.7136367439979], [-104.950717274389, 39.7136754426757], [-104.950776428195, 39.7137247907691], [-104.950878845741, 39.7138100302575], [-104.950928053443, 39.7138812947272], [-104.951015428791, 39.7139582277472], [-104.951117678105, 39.7140650851352], [-104.951194347051, 39.7141474587396], [-104.951296722849, 39.7142381881339], [-104.951429903071, 39.7143671519977], [-104.951500554108, 39.7144237599618], [-104.951534977537, 39.7144537760991], [-104.951609258324, 39.7145007922248], [-104.951683606254, 39.7145392297121], [-104.951732373966, 39.7145531833843], [-104.951860102241, 39.714583977261], [-104.951933794465, 39.7145925565109], [-104.952033131961, 39.7146173838509], [-104.952117359843, 39.7146424837104], [-104.952220187594, 39.714675563071], [-104.952421415694, 39.71473964213], [-104.952502070629, 39.7147671271394], [-104.952594125306, 39.7148142255603], [-104.952657853198, 39.7148471225701], [-104.952702927629, 39.7148789032663], [-104.952812587245, 39.7149477029185], [-104.952903777306, 39.7149917084487], [-104.953063157619, 39.7150662293836], [-104.953196811005, 39.71513514018], [-104.953351684906, 39.7152178758905], [-104.953503089995, 39.7152896138659], [-104.953630585294, 39.7153506026592], [-104.95369703349, 39.7153766484302], [-104.953778575613, 39.7154044802542], [-104.953846005779, 39.7154185199004], [-104.953944560651, 39.7154299585567], [-104.95403332114, 39.7154437541824], [-104.954107036931, 39.7154495869826], [-104.954245580684, 39.7154612105565], [-104.954365356276, 39.7154864741129], [-104.95450635559, 39.7155252187371], [-104.954630404027, 39.7155724643042], [-104.954721767052, 39.7155945067409], [-104.954792763306, 39.7156071900035], [-104.954951639606, 39.7156326337298], [-104.955089167814, 39.7156607240408], [-104.955265777837, 39.7156913972395], [-104.955343829825, 39.7157109756893], [-104.9554387882, 39.7157278869151], [-104.955495619113, 39.7157336406241], [-104.955598703011, 39.7157341177475], [-104.955725780307, 39.7157347057997], [-104.955807451672, 39.7157460648198], [-104.955905956501, 39.7157640217146], [-104.955991160595, 39.7157781427884], [-104.9561003586, 39.7157923740929], [-104.956284140171, 39.7158151857782], [-104.956365810874, 39.7158265445569], [-104.956482078567, 39.7158459559282], [-104.956613429616, 39.715868524979], [-104.956687166548, 39.7158716108165], [-104.956793826522, 39.7158693581699], [-104.957072875238, 39.715869274086], [-104.957210616624, 39.7158699097528], [-104.95740882945, 39.7158653333293], [-104.95755112014, 39.7158522630373], [-104.957660531111, 39.7158390409351], [-104.957798396822, 39.7158235480848], [-104.95790156552, 39.7158130422244], [-104.958114155785, 39.7157879418821], [-104.958351553449, 39.71577256287], [-104.958478755579, 39.7157570202713], [-104.958655767137, 39.7157358723622], [-104.95880791721, 39.7157118651714], [-104.958903987108, 39.7156999524005], [-104.958971589301, 39.7156920278838], [-104.959308766433, 39.7156570653317], [-104.959311027047, 39.7160740867549], [-104.959319960364, 39.7181868617443], [-104.959310678599, 39.7183449329781], [-104.959304384763, 39.7184526408029], [-104.959438741416, 39.7194212566789], [-104.959434711972, 39.7209822797829], [-104.959443064081, 39.7225512520173], [-104.95945490755, 39.7241284752404], [-104.959459158331, 39.7249610031305], [-104.959785457756, 39.7251776640711], [-104.959931394856, 39.7252706439513], [-104.960050642242, 39.7253669333427], [-104.960112307273, 39.725438593894], [-104.960149105281, 39.7255077378539], [-104.960170556254, 39.7256076973093], [-104.959592797173, 39.7256119070453], [-104.959451460697, 39.7256140037716], [-104.958884387233, 39.7256155137461], [-104.958228452593, 39.7256145540949], [-104.957856926688, 39.72561490154], [-104.957649833755, 39.7256149764693], [-104.957281866255, 39.7256149953739], [-104.957050772976, 39.7256153017094], [-104.956705022008, 39.7256157646673], [-104.956449051228, 39.7256149254483], [-104.956128193713, 39.7256144720334], [-104.955838446954, 39.7256138185171], [-104.955539817213, 39.7256124368708], [-104.955226067388, 39.7256123570677], [-104.954961203642, 39.72561215999], [-104.954627898502, 39.7256123311225], [-104.954386121161, 39.7256149847467], [-104.954033262576, 39.7256150635604], [-104.953811951439, 39.7256147226221], [-104.953418209452, 39.7256146097295], [-104.952823616285, 39.7256118457927], [-104.952658303547, 39.7256110768108], [-104.952213914512, 39.7256090085036], [-104.95161307598, 39.7256092979784], [-104.951496640838, 39.725609441493], [-104.95100157207, 39.7256095343647], [-104.950394512798, 39.7256097883364], [-104.950334073033, 39.7256098493485], [-104.950013210461, 39.7256100655403], [-104.949794563206, 39.7256100726768], [-104.949507487408, 39.725608729752], [-104.949193738386, 39.7256086340661], [-104.948954648435, 39.7256085438804], [-104.948582237237, 39.7256085147114], [-104.948400959004, 39.7256035469187], [-104.947380593045, 39.7256049351542], [-104.946777979717, 39.7256048482195], [-104.946751313778, 39.7256050662031], [-104.946170919884, 39.7256050807965], [-104.945650063176, 39.7256067455431], [-104.945098100197, 39.7256082614716], [-104.944553270877, 39.7256067198797], [-104.943996887778, 39.725605121212], [-104.943455613867, 39.7256035913395], [-104.943152535111, 39.7256028433096], [-104.942916117435, 39.7256020672427], [-104.942541925506, 39.7256023541017], [-104.942389047282, 39.7256026588441], [-104.941941973482, 39.7256029410635], [-104.941848645489, 39.7256031832303], [-104.941334932013, 39.7256007449146], [-104.940691440635, 39.7255997479797], [-104.94068852175, 39.7252970658801], [-104.940696119473, 39.7243441429091], [-104.940694416978, 39.7241118144445], [-104.940702963148, 39.7231513460282], [-104.940700736605, 39.7225387919086], [-104.940702645734, 39.7209616295031], [-104.940707994079, 39.7193988954015], [-104.940708512935, 39.7183500309336], [-104.940708788236, 39.7177937301815], [-104.940707945237, 39.717456609552], [-104.940704863636, 39.7162242866966], [-104.940697796079, 39.7150649294493], [-104.940695236136, 39.7146450071117], [-104.940684770232, 39.7130595452377], [-104.940704692328, 39.7115637933913]]]}, "properties": {"NBHD_NAME": "Cherry Creek"}}, {"type": "Feature", "geometry": {"type": "Polygon", "coordinates": [[[-104.940663578845, 39.740129369815], [-104.940664110581, 39.7382793981149], [-104.940670412945, 39.736708785658], [-104.940661976562, 39.7350914324488], [-104.940667839131, 39.7346906494153], [-104.940673557171, 39.7336392335224], [-104.940678100438, 39.7328465550628], [-104.940682501322, 39.7320717193623], [-104.940688152997, 39.7310285384313], [-104.940688969685, 39.7304801718998], [-104.940692735206, 39.7292276526697], [-104.940699160762, 39.7273070116872], [-104.940700783792, 39.7268804701477], [-104.940691440635, 39.7255997479797], [-104.941334932013, 39.7256007449146], [-104.941848645489, 39.7256031832303], [-104.941941973482, 39.7256029410635], [-104.942389047282, 39.7256026588441], [-104.942541925506, 39.7256023541017], [-104.942916117435, 39.7256020672427], [-104.943152535111, 39.7256028433096], [-104.943455613867, 39.7256035913395], [-104.943996887778, 39.725605121212], [-104.944553270877, 39.7256067198797], [-104.945098100197, 39.7256082614716], [-104.945650063176, 39.7256067455431], [-104.946170919884, 39.7256050807965], [-104.946751313778, 39.7256050662031], [-104.946777979717, 39.7256048482195], [-104.947380593045, 39.7256049351542], [-104.948400959004, 39.7256035469187], [-104.948582237237, 39.7256085147114], [-104.948954648435, 39.7256085438804], [-104.949193738386, 39.7256086340661], [-104.949507487408, 39.725608729752], [-104.949794563206, 39.7256100726768], [-104.950013210461, 39.7256100655403], [-104.950334073033, 39.7256098493485], [-104.950394512798, 39.7256097883364], [-104.95100157207, 39.7256095343647], [-104.951496640838, 39.725609441493], [-104.95161307598, 39.7256092979784], [-104.952213914512, 39.7256090085036], [-104.952658303547, 39.7256110768108], [-104.952823616285, 39.7256118457927], [-104.953418209452, 39.7256146097295], [-104.953811951439, 39.7256147226221], [-104.954033262576, 39.7256150635604], [-104.954386121161, 39.7256149847467], [-104.954627898502, 39.7256123311225], [-104.954961203642, 39.72561215999], [-104.955226067388, 39.7256123570677], [-104.955539817213, 39.7256124368708], [-104.955838446954, 39.7256138185171], [-104.956128193713, 39.7256144720334], [-104.956449051228, 39.7256149254483], [-104.956705022008, 39.7256157646673], [-104.957050772976, 39.7256153017094], [-104.957281866255, 39.7256149953739], [-104.957649833755, 39.7256149764693], [-104.957856926688, 39.72561490154], [-104.958228452593, 39.7256145540949], [-104.958884387233, 39.7256155137461], [-104.959451460697, 39.7256140037716], [-104.959592797173, 39.7256119070453], [-104.960170556254, 39.7256076973093], [-104.960162901836, 39.7271155091767], [-104.960181384352, 39.7273190884152], [-104.960192494408, 39.7291094077256], [-104.960169400666, 39.7304932671426], [-104.960094200284, 39.7306782285852], [-104.959897577796, 39.7309326374927], [-104.959839550684, 39.7310806163669], [-104.959844436703, 39.7314848811955], [-104.959833724017, 39.7319525590962], [-104.959799177952, 39.7322832070734], [-104.959795488302, 39.7334547380559], [-104.959793042823, 39.7350418407802], [-104.959784746988, 39.7368114761445], [-104.959777038522, 39.7383892878792], [-104.959780851861, 39.7397248806165], [-104.95978160542, 39.7399891160668], [-104.95946942526, 39.7400079293577], [-104.959282528631, 39.7400348665163], [-104.959139242039, 39.7400554841746], [-104.958797374744, 39.7401194553634], [-104.958443225943, 39.7401620936789], [-104.95811047276, 39.7401969367934], [-104.957991303629, 39.7402025648853], [-104.957892589144, 39.7402072576106], [-104.957427730114, 39.7401961926314], [-104.956851687036, 39.7401928490655], [-104.956270307948, 39.7401898207488], [-104.95568270818, 39.7401864178587], [-104.955175374918, 39.7401833838962], [-104.95474306046, 39.7401837833732], [-104.954193678646, 39.7401815797618], [-104.954165218617, 39.7401831637361], [-104.953598959475, 39.7401791627234], [-104.953566956762, 39.7401790145192], [-104.95298824718, 39.7401756392554], [-104.952399742735, 39.7401742748774], [-104.951822817022, 39.7401702156785], [-104.951239641134, 39.7401695566251], [-104.950701815751, 39.7401673904018], [-104.950651163589, 39.7401647517063], [-104.950059981947, 39.7401647356855], [-104.949470605064, 39.740161293518], [-104.949421703901, 39.7401620943562], [-104.948930102181, 39.7401604794785], [-104.948846539906, 39.7401600881203], [-104.948369180727, 39.7401561353678], [-104.948261599744, 39.7401576898576], [-104.947824224815, 39.7401563246036], [-104.947682879783, 39.7401556612607], [-104.947273062584, 39.7401544235026], [-104.946539663251, 39.7401516628284], [-104.946165423262, 39.7401481861], [-104.945945822764, 39.7401505840507], [-104.945616004289, 39.7401507459921], [-104.945366197705, 39.7401505985098], [-104.944791047245, 39.7401468565282], [-104.944509251589, 39.740144840705], [-104.94416027934, 39.7401425063075], [-104.94305029513, 39.7401419554185], [-104.941870798578, 39.7401340715016], [-104.941316083843, 39.7401317822697], [-104.940663578845, 39.740129369815]]]}, "properties": {"NBHD_NAME": "Congress Park"}}, {"type": "Feature", "geometry": {"type": "Polygon", "coordinates": [[[-104.940621034984, 39.751036810207], [-104.940628217594, 39.7492445301947], [-104.940634999574, 39.7473911639065], [-104.940639756734, 39.7461259605793], [-104.940644642174, 39.7449561555685], [-104.940653346083, 39.7437534249349], [-104.940650831146, 39.743399959001], [-104.940653900625, 39.7425691853849], [-104.940656233865, 39.7419422445504], [-104.940656861339, 39.7417521374787], [-104.940657992083, 39.7413873646213], [-104.940663578845, 39.740129369815], [-104.941316083843, 39.7401317822697], [-104.941870798578, 39.7401340715016], [-104.94305029513, 39.7401419554185], [-104.94416027934, 39.7401425063075], [-104.944509251589, 39.740144840705], [-104.944791047245, 39.7401468565282], [-104.945366197705, 39.7401505985098], [-104.945616004289, 39.7401507459921], [-104.945945822764, 39.7401505840507], [-104.946165423262, 39.7401481861], [-104.946539663251, 39.7401516628284], [-104.947273062584, 39.7401544235026], [-104.947682879783, 39.7401556612607], [-104.947824224815, 39.7401563246036], [-104.948261599744, 39.7401576898576], [-104.948369180727, 39.7401561353678], [-104.948846539906, 39.7401600881203], [-104.948930102181, 39.7401604794785], [-104.949421703901, 39.7401620943562], [-104.949470605064, 39.740161293518], [-104.950059981947, 39.7401647356855], [-104.950651163589, 39.7401647517063], [-104.950701815751, 39.7401673904018], [-104.951239641134, 39.7401695566251], [-104.951822817022, 39.7401702156785], [-104.952399742735, 39.7401742748774], [-104.95298824718, 39.7401756392554], [-104.953566956762, 39.7401790145192], [-104.953598959475, 39.7401791627234], [-104.954165218617, 39.7401831637361], [-104.954193678646, 39.7401815797618], [-104.95474306046, 39.7401837833732], [-104.955175374918, 39.7401833838962], [-104.95568270818, 39.7401864178587], [-104.956270307948, 39.7401898207488], [-104.956851687036, 39.7401928490655], [-104.957427730114, 39.7401961926314], [-104.957892589144, 39.7402072576106], [-104.957991303629, 39.7402025648853], [-104.95811047276, 39.7401969367934], [-104.958443225943, 39.7401620936789], [-104.958797374744, 39.7401194553634], [-104.959139242039, 39.7400554841746], [-104.959282528631, 39.7400348665163], [-104.95946942526, 39.7400079293577], [-104.95978160542, 39.7399891160668], [-104.95977705746, 39.7416184142091], [-104.959783083735, 39.7432597702405], [-104.959790138596, 39.7447676411143], [-104.959784100856, 39.7469363738369], [-104.959767250061, 39.7482004907531], [-104.959761133234, 39.7494560778137], [-104.959766530048, 39.7507175501221], [-104.959222362907, 39.7507201986194], [-104.958786527897, 39.7507411867999], [-104.958378966287, 39.7507852947412], [-104.957868040178, 39.750858437422], [-104.957259312556, 39.7509311265089], [-104.956662208464, 39.7509952871766], [-104.955296338359, 39.7511306976545], [-104.954944972181, 39.7511510331076], [-104.954504738514, 39.7511654650411], [-104.949863610947, 39.7511551153883], [-104.949061484076, 39.7511533076278], [-104.945730023154, 39.7511457433955], [-104.943243108146, 39.7511463581803], [-104.942402083422, 39.7511341409666], [-104.940621034984, 39.751036810207]]]}, "properties": {"NBHD_NAME": "City Park"}}, {"type": "Feature", "geometry": {"type": "Polygon", "coordinates": [[[-104.95978160542, 39.7399891160668], [-104.960402124872, 39.7399888751642], [-104.961013751417, 39.7399889330824], [-104.961632468756, 39.7399917654267], [-104.962237850967, 39.7399945335769], [-104.962851258336, 39.7399942468555], [-104.963466440248, 39.7399943078029], [-104.964124271857, 39.7399973053819], [-104.964766102034, 39.7400002265017], [-104.965381263332, 39.7400030229593], [-104.965990202014, 39.7400057879621], [-104.966605358188, 39.7400092645008], [-104.967232068792, 39.7400131331131], [-104.96784814528, 39.7400124893015], [-104.968461560065, 39.7400111437373], [-104.96968825263, 39.7400266302086], [-104.970140755013, 39.7400259234077], [-104.970311443352, 39.7400256624349], [-104.970787947843, 39.7400250611854], [-104.971290219203, 39.7400262897647], [-104.971876947523, 39.7400272085249], [-104.972136532023, 39.7400273438439], [-104.972755205964, 39.7400359512584], [-104.97299165463, 39.7400390691633], [-104.973412216403, 39.7400299708927], [-104.973392020901, 39.741654050283], [-104.973388730365, 39.7426841971539], [-104.973387156355, 39.7432490286936], [-104.973383172756, 39.7437795337829], [-104.973390360207, 39.744835120401], [-104.973384908124, 39.7450873172117], [-104.973365886318, 39.7459432495882], [-104.973338951913, 39.7469641021224], [-104.973335064284, 39.747529103641], [-104.973334341687, 39.7481191250988], [-104.973356768381, 39.748360917429], [-104.973359056075, 39.7494772196137], [-104.97335769536, 39.7507239044621], [-104.972733525231, 39.7507241981523], [-104.972113803335, 39.7507241654596], [-104.971500291997, 39.750725873018], [-104.970877892754, 39.7507271941946], [-104.970272427396, 39.7507230981487], [-104.969650069419, 39.7507189225145], [-104.9690356825, 39.7507188974535], [-104.968425737852, 39.7507192326759], [-104.967807814995, 39.7507164400826], [-104.967178333644, 39.7507135919167], [-104.966566614267, 39.7507135662939], [-104.965942444466, 39.7507138237184], [-104.965329811682, 39.7507168758498], [-104.964710066283, 39.7507198922417], [-104.964093011406, 39.7507198294949], [-104.963451951412, 39.7507196538762], [-104.962838439905, 39.7507213164323], [-104.96222670711, 39.7507229839683], [-104.961610572839, 39.750718794207], [-104.960995330942, 39.750714262332], [-104.960378263371, 39.7507158957774], [-104.959766530048, 39.7507175501221], [-104.959761133234, 39.7494560778137], [-104.959767250061, 39.7482004907531], [-104.959784100856, 39.7469363738369], [-104.959790138596, 39.7447676411143], [-104.959783083735, 39.7432597702405], [-104.95977705746, 39.7416184142091], [-104.95978160542, 39.7399891160668]]]}, "properties": {"NBHD_NAME": "City Park West"}}]}